{
    "links": {
        "self": "http://www.neowsapp.com/rest/v1/neo/3755396?api_key=iIulBulltgU6a56xZRHN4H3l9WmuAYTsLGpBGhQ2"
    },
    "id": "3755396",
    "neo_reference_id": "3755396",
    "name": "(2016 NU38)",
    "designation": "2016 NU38",
    "nasa_jpl_url": "http://ssd.jpl.nasa.gov/sbdb.cgi?sstr=3755396",
    "absolute_magnitude_h": 23.2,
    "estimated_diameter": {
        "kilometers": {
            "estimated_diameter_min": 0.0608912622,
            "estimated_diameter_max": 0.1361570015
        },
        "meters": {
            "estimated_diameter_min": 60.8912622106,
            "estimated_diameter_max": 136.1570015386
        },
        "miles": {
            "estimated_diameter_min": 0.0378360645,
            "estimated_diameter_max": 0.0846040122
        },
        "feet": {
            "estimated_diameter_min": 199.7744887109,
            "estimated_diameter_max": 446.7093369279
        }
    },
    "is_potentially_hazardous_asteroid": false,
    "close_approach_data": [
        {
            "close_approach_date": "2016-07-28",
            "close_approach_date_full": "2016-Jul-28 13:57",
            "epoch_date_close_approach": 1469714220000,
            "relative_velocity": {
                "kilometers_per_second": "10.0671082231",
                "kilometers_per_hour": "36241.5896032122",
                "miles_per_hour": "22519.1143842848"
            },
            "miss_distance": {
                "astronomical": "0.1039347578",
                "lunar": "40.4306207842",
                "kilometers": "15548418.385845886",
                "miles": "9661339.1827137868"
            },
            "orbiting_body": "Earth"
        }
    ],
    "orbital_data": {
        "orbit_id": "6",
        "orbit_determination_date": "2017-04-06 08:24:57",
        "first_observation_date": "2016-07-13",
        "last_observation_date": "2016-08-05",
        "data_arc_in_days": 23,
        "observations_used": 49,
        "orbit_uncertainty": "8",
        "minimum_orbit_intersection": ".101327",
        "jupiter_tisserand_invariant": "3.444",
        "epoch_osculation": "2457589.5",
        "eccentricity": ".5078226596150782",
        "semi_major_axis": "2.211061099679228",
        "inclination": "13.76962230930261",
        "ascending_node_longitude": "118.1307744598331",
        "orbital_period": "1200.879808511372",
        "perihelion_distance": "1.088234171468683",
        "perihelion_argument": "207.9874798779077",
        "aphelion_distance": "3.333888027889774",
        "perihelion_time": "2457616.023350578913",
        "mean_anomaly": "352.0488244196187",
        "mean_motion": ".2997802090171383",
        "equinox": "J2000",
        "orbit_class": {
            "orbit_class_type": "AMO",
            "orbit_class_description": "Near-Earth asteroid orbits similar to that of 1221 Amor",
            "orbit_class_range": "1.017 AU < q (perihelion) < 1.3 AU"
        }
    },
    "is_sentry_object": false
}